{
  "type": "FeatureCollection",
  "features": [
    {
      "type": "Feature",
      "properties": {
        "norad_id": 34299,
        "name": "COSMOS 2251 DEB",
        "group": "cosmos-2251-debris",
        "lat": 73.69943838461367,
        "lon": 47.71687061366517,
        "alt_km": 316.3978428557093,
        "timestamp": "2025-12-15T10:55:21.538611+00:00",
        "meta_object_name": "COSMOS 2251 DEB",
        "meta_object_id": "1993-036MV",
        "meta_epoch": "2025-12-14T16:17:52.746144",
        "meta_mean_motion": 15.77335334,
        "meta_eccentricity": 0.00169209,
        "meta_inclination": 73.9746,
        "meta_ra_of_asc_node": 330.1031,
        "meta_arg_of_pericenter": 62.4789,
        "meta_mean_anomaly": 297.8155,
        "meta_ephemeris_type": 0,
        "meta_classification_type": "U",
        "meta_norad_cat_id": 34299,
        "meta_element_set_no": 999,
        "meta_rev_at_epoch": 89041,
        "meta_bstar": 0.0055958554,
        "meta_mean_motion_dot": 0.01025148,
        "meta_mean_motion_ddot": 0,
        "tle_line1": "1 34299U 93036MV  25348.67908271  .01025148  00000+0  55959-2 0  9995",
        "tle_line2": "2 34299  73.9746 330.1031 0016920  62.4789 297.8155 15.77335334890410"
      },
      "geometry": {
        "type": "Point",
        "coordinates": [
          47.71687061366517,
          73.69943838461367
        ]
      }
    },
    {
      "type": "Feature",
      "properties": {
        "norad_id": 34301,
        "name": "COSMOS 2251 DEB",
        "group": "cosmos-2251-debris",
        "lat": -30.572482897172815,
        "lon": 151.54844763881422,
        "alt_km": 622.382269421898,
        "timestamp": "2025-12-15T10:55:21.538621+00:00",
        "meta_object_name": "COSMOS 2251 DEB",
        "meta_object_id": "1993-036MX",
        "meta_epoch": "2025-12-14T22:49:00.859296",
        "meta_mean_motion": 14.84671361,
        "meta_eccentricity": 0.00111476,
        "meta_inclination": 74.0046,
        "meta_ra_of_asc_node": 162.3071,
        "meta_arg_of_pericenter": 223.1829,
        "meta_mean_anomaly": 290.0111,
        "meta_ephemeris_type": 0,
        "meta_classification_type": "U",
        "meta_norad_cat_id": 34301,
        "meta_element_set_no": 999,
        "meta_rev_at_epoch": 88433,
        "meta_bstar": 0.0018533089,
        "meta_mean_motion_dot": 0.00015703,
        "meta_mean_motion_ddot": 0,
        "tle_line1": "1 34301U 93036MX  25348.95070439  .00015703  00000+0  18533-2 0  9998",
        "tle_line2": "2 34301  74.0046 162.3071 0011147 223.1829 290.0111 14.84671361884336"
      },
      "geometry": {
        "type": "Point",
        "coordinates": [
          151.54844763881422,
          -30.572482897172815
        ]
      }
    },
    {
      "type": "Feature",
      "properties": {
        "norad_id": 34302,
        "name": "COSMOS 2251 DEB",
        "group": "cosmos-2251-debris",
        "lat": -24.683099279829445,
        "lon": 111.1231090651621,
        "alt_km": 709.5688571347873,
        "timestamp": "2025-12-15T10:55:21.538633+00:00",
        "meta_object_name": "COSMOS 2251 DEB",
        "meta_object_id": "1993-036MY",
        "meta_epoch": "2025-12-14T18:55:07.724640",
        "meta_mean_motion": 14.39340473,
        "meta_eccentricity": 0.00788903,
        "meta_inclination": 74.1779,
        "meta_ra_of_asc_node": 119.8314,
        "meta_arg_of_pericenter": 334.4813,
        "meta_mean_anomaly": 146.0411,
        "meta_ephemeris_type": 0,
        "meta_classification_type": "U",
        "meta_norad_cat_id": 34302,
        "meta_element_set_no": 999,
        "meta_rev_at_epoch": 87750,
        "meta_bstar": 0.00062170282,
        "meta_mean_motion_dot": 1.978e-05,
        "meta_mean_motion_ddot": 0,
        "tle_line1": "1 34302U 93036MY  25348.78828385  .00001978  00000+0  62170-3 0  9997",
        "tle_line2": "2 34302  74.1779 119.8314 0078890 334.4813 146.0411 14.39340473877506"
      },
      "geometry": {
        "type": "Point",
        "coordinates": [
          111.1231090651621,
          -24.683099279829445
        ]
      }
    },
    {
      "type": "Feature",
      "properties": {
        "norad_id": 34303,
        "name": "COSMOS 2251 DEB",
        "group": "cosmos-2251-debris",
        "lat": -53.71585428005464,
        "lon": -100.10395750069861,
        "alt_km": 760.866747952191,
        "timestamp": "2025-12-15T10:55:21.538643+00:00",
        "meta_object_name": "COSMOS 2251 DEB",
        "meta_object_id": "1993-036MZ",
        "meta_epoch": "2025-12-14T20:35:33.511200",
        "meta_mean_motion": 14.54485516,
        "meta_eccentricity": 0.01351146,
        "meta_inclination": 74.0053,
        "meta_ra_of_asc_node": 284.0257,
        "meta_arg_of_pericenter": 61.8457,
        "meta_mean_anomaly": 357.4625,
        "meta_ephemeris_type": 0,
        "meta_classification_type": "U",
        "meta_norad_cat_id": 34303,
        "meta_element_set_no": 999,
        "meta_rev_at_epoch": 87993,
        "meta_bstar": 0.0009707797,
        "meta_mean_motion_dot": 4.644e-05,
        "meta_mean_motion_ddot": 0,
        "tle_line1": "1 34303U 93036MZ  25348.85802675  .00004644  00000+0  97078-3 0  9998",
        "tle_line2": "2 34303  74.0053 284.0257 0135114  61.8457 357.4625 14.54485516879939"
      },
      "geometry": {
        "type": "Point",
        "coordinates": [
          -100.10395750069861,
          -53.71585428005464
        ]
      }
    },
    {
      "type": "Feature",
      "properties": {
        "norad_id": 34304,
        "name": "COSMOS 2251 DEB",
        "group": "cosmos-2251-debris",
        "lat": -67.40582632528809,
        "lon": -18.86858962000712,
        "alt_km": 680.2556190750238,
        "timestamp": "2025-12-15T10:55:21.538654+00:00",
        "meta_object_name": "COSMOS 2251 DEB",
        "meta_object_id": "1993-036NA",
        "meta_epoch": "2025-12-14T19:25:23.771424",
        "meta_mean_motion": 14.37884106,
        "meta_eccentricity": 0.01289634,
        "meta_inclination": 74.0128,
        "meta_ra_of_asc_node": 118.7772,
        "meta_arg_of_pericenter": 256.1543,
        "meta_mean_anomaly": 256.0578,
        "meta_ephemeris_type": 0,
        "meta_classification_type": "U",
        "meta_norad_cat_id": 34304,
        "meta_element_set_no": 999,
        "meta_rev_at_epoch": 87326,
        "meta_bstar": 0.0013845684,
        "meta_mean_motion_dot": 4.574e-05,
        "meta_mean_motion_ddot": 0,
        "tle_line1": "1 34304U 93036NA  25348.80930291  .00004574  00000+0  13846-2 0  9992",
        "tle_line2": "2 34304  74.0128 118.7772 0128963 256.1543 256.0578 14.37884106873267"
      },
      "geometry": {
        "type": "Point",
        "coordinates": [
          -18.86858962000712,
          -67.40582632528809
        ]
      }
    },
    {
      "type": "Feature",
      "properties": {
        "norad_id": 34307,
        "name": "COSMOS 2251 DEB",
        "group": "cosmos-2251-debris",
        "lat": -0.2802955002208999,
        "lon": -51.321856454798485,
        "alt_km": 1274.8775532928803,
        "timestamp": "2025-12-15T10:55:21.538664+00:00",
        "meta_object_name": "COSMOS 2251 DEB",
        "meta_object_id": "1993-036ND",
        "meta_epoch": "2025-12-14T22:48:16.494624",
        "meta_mean_motion": 13.54323697,
        "meta_eccentricity": 0.03920043,
        "meta_inclination": 74.0534,
        "meta_ra_of_asc_node": 309.5682,
        "meta_arg_of_pericenter": 140.0241,
        "meta_mean_anomaly": 281.9415,
        "meta_ephemeris_type": 0,
        "meta_classification_type": "U",
        "meta_norad_cat_id": 34307,
        "meta_element_set_no": 999,
        "meta_rev_at_epoch": 82892,
        "meta_bstar": 0.00066072288,
        "meta_mean_motion_dot": 7.16e-06,
        "meta_mean_motion_ddot": 0,
        "tle_line1": "1 34307U 93036ND  25348.95019091  .00000716  00000+0  66072-3 0  9991",
        "tle_line2": "2 34307  74.0534 309.5682 0392004 140.0241 281.9415 13.54323697828927"
      },
      "geometry": {
        "type": "Point",
        "coordinates": [
          -51.321856454798485,
          -0.2802955002208999
        ]
      }
    },
    {
      "type": "Feature",
      "properties": {
        "norad_id": 34313,
        "name": "COSMOS 2251 DEB",
        "group": "cosmos-2251-debris",
        "lat": -36.2724093047573,
        "lon": -72.39355902049596,
        "alt_km": 516.3351198093569,
        "timestamp": "2025-12-15T10:55:21.538675+00:00",
        "meta_object_name": "COSMOS 2251 DEB",
        "meta_object_id": "1993-036NK",
        "meta_epoch": "2025-12-14T22:26:55.490208",
        "meta_mean_motion": 15.19519915,
        "meta_eccentricity": 0.00113474,
        "meta_inclination": 73.9722,
        "meta_ra_of_asc_node": 300.8772,
        "meta_arg_of_pericenter": 77.5913,
        "meta_mean_anomaly": 282.6553,
        "meta_ephemeris_type": 0,
        "meta_classification_type": "U",
        "meta_norad_cat_id": 34313,
        "meta_element_set_no": 999,
        "meta_rev_at_epoch": 89098,
        "meta_bstar": 0.0025815642,
        "meta_mean_motion_dot": 0.00055329,
        "meta_mean_motion_ddot": 0,
        "tle_line1": "1 34313U 93036NK  25348.93536447  .00055329  00000+0  25816-2 0  9995",
        "tle_line2": "2 34313  73.9722 300.8772 0011347  77.5913 282.6553 15.19519915890982"
      },
      "geometry": {
        "type": "Point",
        "coordinates": [
          -72.39355902049596,
          -36.2724093047573
        ]
      }
    }
  ]
}